[{"OBJECT_NAME":"CBERS 4","OBJECT_ID":"2014-079A","EPOCH":"2026-04-25T23:16:39.493920","MEAN_MOTION":14.35544386,"ECCENTRICITY":0.00012655,"INCLINATION":98.3392,"RA_OF_ASC_NODE":174.4476,"ARG_OF_PERICENTER":130.4241,"MEAN_ANOMALY":229.7056,"EPHEMERIS_TYPE":0,"CLASSIFICATION_TYPE":"U","NORAD_CAT_ID":40336,"ELEMENT_SET_NO":999,"REV_AT_EPOCH":59646,"BSTAR":2.1898915e-5,"MEAN_MOTION_DOT":2.1e-7,"MEAN_MOTION_DDOT":0},{"OBJECT_NAME":"SMAP","OBJECT_ID":"2015-003A","EPOCH":"2026-04-25T21:49:11.445600","MEAN_MOTION":14.63391596,"ECCENTRICITY":0.00017925,"INCLINATION":98.1295,"RA_OF_ASC_NODE":123.7403,"ARG_OF_PERICENTER":77.1999,"MEAN_ANOMALY":282.9403,"EPHEMERIS_TYPE":0,"CLASSIFICATION_TYPE":"U","NORAD_CAT_ID":40376,"ELEMENT_SET_NO":999,"REV_AT_EPOCH":59997,"BSTAR":9.8005266e-5,"MEAN_MOTION_DOT":4.6e-6,"MEAN_MOTION_DDOT":0},{"OBJECT_NAME":"GONETS-M 11","OBJECT_ID":"2015-020A","EPOCH":"2026-04-25T22:13:56.534592","MEAN_MOTION":12.42874952,"ECCENTRICITY":0.00170924,"INCLINATION":82.4853,"RA_OF_ASC_NODE":63.5498,"ARG_OF_PERICENTER":113.2065,"MEAN_ANOMALY":247.0817,"EPHEMERIS_TYPE":0,"CLASSIFICATION_TYPE":"U","NORAD_CAT_ID":40552,"ELEMENT_SET_NO":999,"REV_AT_EPOCH":50224,"BSTAR":0.00022227804,"MEAN_MOTION_DOT":4.1e-7,"MEAN_MOTION_DDOT":0},{"OBJECT_NAME":"GONETS-M 12","OBJECT_ID":"2015-020B","EPOCH":"2026-04-25T21:36:38.695104","MEAN_MOTION":12.42889933,"ECCENTRICITY":0.00162814,"INCLINATION":82.4886,"RA_OF_ASC_NODE":64.6761,"ARG_OF_PERICENTER":98.6988,"MEAN_ANOMALY":261.5937,"EPHEMERIS_TYPE":0,"CLASSIFICATION_TYPE":"U","NORAD_CAT_ID":40553,"ELEMENT_SET_NO":999,"REV_AT_EPOCH":50223,"BSTAR":0.0010217754,"MEAN_MOTION_DOT":1.52e-6,"MEAN_MOTION_DDOT":0},{"OBJECT_NAME":"GONETS-M 13","OBJECT_ID":"2015-020C","EPOCH":"2026-04-25T20:57:11.441376","MEAN_MOTION":12.4286849,"ECCENTRICITY":0.00149997,"INCLINATION":82.485,"RA_OF_ASC_NODE":63.3234,"ARG_OF_PERICENTER":84.6143,"MEAN_ANOMALY":275.6647,"EPHEMERIS_TYPE":0,"CLASSIFICATION_TYPE":"U","NORAD_CAT_ID":40554,"ELEMENT_SET_NO":999,"REV_AT_EPOCH":50220,"BSTAR":0.00046627175,"MEAN_MOTION_DOT":7.5e-7,"MEAN_MOTION_DDOT":0},{"OBJECT_NAME":"DMC3-FM1","OBJECT_ID":"2015-032A","EPOCH":"2026-04-25T22:36:41.981184","MEAN_MOTION":14.85679658,"ECCENTRICITY":0.00043527,"INCLINATION":97.6538,"RA_OF_ASC_NODE":343.1474,"ARG_OF_PERICENTER":213.0047,"MEAN_ANOMALY":147.0898,"EPHEMERIS_TYPE":0,"CLASSIFICATION_TYPE":"U","NORAD_CAT_ID":40715,"ELEMENT_SET_NO":999,"REV_AT_EPOCH":58215,"BSTAR":6.3098669e-5,"MEAN_MOTION_DOT":4.96e-6,"MEAN_MOTION_DDOT":0},{"OBJECT_NAME":"DMC3-FM2","OBJECT_ID":"2015-032B","EPOCH":"2026-04-25T21:31:43.302144","MEAN_MOTION":14.85679889,"ECCENTRICITY":0.00048086,"INCLINATION":97.6591,"RA_OF_ASC_NODE":344.6414,"ARG_OF_PERICENTER":222.3709,"MEAN_ANOMALY":137.7136,"EPHEMERIS_TYPE":0,"CLASSIFICATION_TYPE":"U","NORAD_CAT_ID":40716,"ELEMENT_SET_NO":999,"REV_AT_EPOCH":58214,"BSTAR":-5.209996e-6,"MEAN_MOTION_DOT":-9.7e-7,"MEAN_MOTION_DDOT":0},{"OBJECT_NAME":"DMC3-FM3","OBJECT_ID":"2015-032C","EPOCH":"2026-04-25T22:04:58.198656","MEAN_MOTION":14.8568032,"ECCENTRICITY":0.00041155,"INCLINATION":97.6642,"RA_OF_ASC_NODE":346.3829,"ARG_OF_PERICENTER":219.1306,"MEAN_ANOMALY":140.9612,"EPHEMERIS_TYPE":0,"CLASSIFICATION_TYPE":"U","NORAD_CAT_ID":40717,"ELEMENT_SET_NO":999,"REV_AT_EPOCH":58215,"BSTAR":5.5767731e-5,"MEAN_MOTION_DOT":4.32e-6,"MEAN_MOTION_DDOT":0},{"OBJECT_NAME":"CARBONITE 1 (CBNT-1)","OBJECT_ID":"2015-032D","EPOCH":"2026-04-25T23:26:25.119168","MEAN_MOTION":14.83417075,"ECCENTRICITY":0.00159153,"INCLINATION":97.6499,"RA_OF_ASC_NODE":296.2403,"ARG_OF_PERICENTER":104.5674,"MEAN_ANOMALY":255.7307,"EPHEMERIS_TYPE":0,"CLASSIFICATION_TYPE":"U","NORAD_CAT_ID":40718,"ELEMENT_SET_NO":999,"REV_AT_EPOCH":58160,"BSTAR":0.00021054187,"MEAN_MOTION_DOT":1.681e-5,"MEAN_MOTION_DDOT":0},{"OBJECT_NAME":"DEORBITSAIL","OBJECT_ID":"2015-032E","EPOCH":"2026-04-25T20:18:01.936800","MEAN_MOTION":15.03110214,"ECCENTRICITY":0.00147269,"INCLINATION":97.5959,"RA_OF_ASC_NODE":333.6807,"ARG_OF_PERICENTER":57.3077,"MEAN_ANOMALY":302.9567,"EPHEMERIS_TYPE":0,"CLASSIFICATION_TYPE":"U","NORAD_CAT_ID":40719,"ELEMENT_SET_NO":999,"REV_AT_EPOCH":58338,"BSTAR":0.00060279631,"MEAN_MOTION_DOT":8.097e-5,"MEAN_MOTION_DDOT":0},{"OBJECT_NAME":"2015-049G","OBJECT_ID":"2015-049G","EPOCH":"2026-04-25T22:01:45.484320","MEAN_MOTION":15.62527255,"ECCENTRICITY":0.00064199,"INCLINATION":97.4625,"RA_OF_ASC_NODE":156.9949,"ARG_OF_PERICENTER":65.3101,"MEAN_ANOMALY":294.8825,"EPHEMERIS_TYPE":0,"CLASSIFICATION_TYPE":"U","NORAD_CAT_ID":40905,"ELEMENT_SET_NO":999,"REV_AT_EPOCH":58827,"BSTAR":0.00045877405,"MEAN_MOTION_DOT":0.00040887,"MEAN_MOTION_DDOT":0},{"OBJECT_NAME":"LILACSAT-2","OBJECT_ID":"2015-049K","EPOCH":"2026-04-25T22:25:10.437312","MEAN_MOTION":15.49696794,"ECCENTRICITY":0.00088538,"INCLINATION":97.4734,"RA_OF_ASC_NODE":150.8387,"ARG_OF_PERICENTER":86.8978,"MEAN_ANOMALY":273.3286,"EPHEMERIS_TYPE":0,"CLASSIFICATION_TYPE":"U","NORAD_CAT_ID":40908,"ELEMENT_SET_NO":999,"REV_AT_EPOCH":58765,"BSTAR":0.00034941182,"MEAN_MOTION_DOT":0.00019326,"MEAN_MOTION_DDOT":0},{"OBJECT_NAME":"COSMOS 2507 (RODNIK-S 13)","OBJECT_ID":"2015-050A","EPOCH":"2026-04-25T23:47:28.833216","MEAN_MOTION":12.42925533,"ECCENTRICITY":0.00110966,"INCLINATION":82.4881,"RA_OF_ASC_NODE":112.1702,"ARG_OF_PERICENTER":101.1758,"MEAN_ANOMALY":259.057,"EPHEMERIS_TYPE":0,"CLASSIFICATION_TYPE":"U","NORAD_CAT_ID":40920,"ELEMENT_SET_NO":999,"REV_AT_EPOCH":48037,"BSTAR":0.00096428254,"MEAN_MOTION_DOT":1.44e-6,"MEAN_MOTION_DDOT":0},{"OBJECT_NAME":"COSMOS 2508 (RODNIK-S 14)","OBJECT_ID":"2015-050B","EPOCH":"2026-04-25T22:41:55.107744","MEAN_MOTION":12.42913002,"ECCENTRICITY":0.00149902,"INCLINATION":82.4833,"RA_OF_ASC_NODE":110.7233,"ARG_OF_PERICENTER":133.2731,"MEAN_ANOMALY":226.9602,"EPHEMERIS_TYPE":0,"CLASSIFICATION_TYPE":"U","NORAD_CAT_ID":40921,"ELEMENT_SET_NO":999,"REV_AT_EPOCH":48035,"BSTAR":0.0014920243,"MEAN_MOTION_DOT":2.17e-6,"MEAN_MOTION_DDOT":0},{"OBJECT_NAME":"COSMOS 2509 (RODNIK-S 15)","OBJECT_ID":"2015-050C","EPOCH":"2026-04-25T23:09:20.389248","MEAN_MOTION":12.42882707,"ECCENTRICITY":0.00149943,"INCLINATION":82.4841,"RA_OF_ASC_NODE":110.8083,"ARG_OF_PERICENTER":149.9901,"MEAN_ANOMALY":210.2041,"EPHEMERIS_TYPE":0,"CLASSIFICATION_TYPE":"U","NORAD_CAT_ID":40922,"ELEMENT_SET_NO":999,"REV_AT_EPOCH":48039,"BSTAR":0.0014897592,"MEAN_MOTION_DOT":2.16e-6,"MEAN_MOTION_DDOT":0},{"OBJECT_NAME":"LQSAT","OBJECT_ID":"2015-057A","EPOCH":"2026-04-25T23:08:29.212800","MEAN_MOTION":14.7671523,"ECCENTRICITY":0.00186447,"INCLINATION":97.6685,"RA_OF_ASC_NODE":111.932,"ARG_OF_PERICENTER":82.2681,"MEAN_ANOMALY":278.0646,"EPHEMERIS_TYPE":0,"CLASSIFICATION_TYPE":"U","NORAD_CAT_ID":40958,"ELEMENT_SET_NO":999,"REV_AT_EPOCH":56760,"BSTAR":0.00014985916,"MEAN_MOTION_DOT":1.004e-5,"MEAN_MOTION_DDOT":0}]
