CBERS 4                 
1 40336U 14079A   26115.96990155  .00000021  00000+0  21899-4 0  9991
2 40336  98.3392 174.4476 0001265 130.4241 229.7056 14.35544386596468
SMAP                    
1 40376U 15003A   26115.90916025  .00000460  00000+0  98005-4 0  9991
2 40376  98.1295 123.7403 0001792  77.1999 282.9403 14.63391596599971
GONETS-M 11             
1 40552U 15020A   26115.92634878  .00000041  00000+0  22228-3 0  9999
2 40552  82.4853  63.5498 0017092 113.2065 247.0817 12.42874952502246
GONETS-M 12             
1 40553U 15020B   26115.90044786  .00000152  00000+0  10218-2 0  9999
2 40553  82.4886  64.6761 0016281  98.6988 261.5937 12.42889933502235
GONETS-M 13             
1 40554U 15020C   26115.87304909  .00000075  00000+0  46627-3 0  9990
2 40554  82.4850  63.3234 0014999  84.6143 275.6647 12.42868490502206
DMC3-FM1                
1 40715U 15032A   26115.94215256  .00000496  00000+0  63099-4 0  9996
2 40715  97.6538 343.1474 0004352 213.0047 147.0898 14.85679658582151
DMC3-FM2                
1 40716U 15032B   26115.89702896 -.00000097  00000+0 -52100-5 0  9993
2 40716  97.6591 344.6414 0004808 222.3709 137.7136 14.85679889582141
DMC3-FM3                
1 40717U 15032C   26115.92011804  .00000432  00000+0  55768-4 0  9993
2 40717  97.6642 346.3829 0004115 219.1306 140.9612 14.85680320582154
CARBONITE 1 (CBNT-1)    
1 40718U 15032D   26115.97667962  .00001681  00000+0  21054-3 0  9998
2 40718  97.6499 296.2403 0015915 104.5674 255.7307 14.83417075581609
DEORBITSAIL             
1 40719U 15032E   26115.84585575  .00008097  00000+0  60280-3 0  9996
2 40719  97.5959 333.6807 0014726  57.3077 302.9567 15.03110214583383
2015-049G               
1 40905U 15049G   26115.91788755  .00040887  00000+0  45877-3 0  9992
2 40905  97.4625 156.9949 0006419  65.3101 294.8825 15.62527255588270
LILACSAT-2              
1 40908U 15049K   26115.93414858  .00019326  00000+0  34941-3 0  9991
2 40908  97.4734 150.8387 0008853  86.8978 273.3286 15.49696794587651
COSMOS 2507 (RODNIK-S *)
1 40920U 15050A   26115.99130594  .00000144  00000+0  96428-3 0  9991
2 40920  82.4881 112.1702 0011096 101.1758 259.0570 12.42925533480378
COSMOS 2508 (RODNIK-S *)
1 40921U 15050B   26115.94577671  .00000217  00000+0  14920-2 0  9995
2 40921  82.4833 110.7233 0014990 133.2731 226.9602 12.42913002480357
COSMOS 2509 (RODNIK-S *)
1 40922U 15050C   26115.96481932  .00000216  00000+0  14898-2 0  9995
2 40922  82.4841 110.8083 0014994 149.9901 210.2041 12.42882707480392
LQSAT                   
1 40958U 15057A   26115.96422700  .00001004  00000+0  14986-3 0  9994
2 40958  97.6685 111.9320 0018644  82.2681 278.0646 14.76715230567609
